ESTCUBE 1               
1 39161U 13021C   22315.75419113  .00001998  00000+0  31653-3 0  9998
2 39161  97.8986  29.0954 0008829 316.6164  43.4341 14.73276149511158
FENGYUN 3C              
1 39260U 13052A   22315.81750006  .00000130  00000+0  86836-4 0  9999
2 39260  98.4444 336.4022 0010575 204.9058 155.1610 14.15958492472775
CASSIOPE                
1 39265U 13055A   22315.52742077  .00016840  00000+0  44294-3 0  9990
2 39265  80.9621 111.0330 0607733 241.2674 112.6170 14.42173349473509
ZACUBE-1 (TSHEPISOSAT)  
1 39417U 13066B   22315.43028516  .00002664  00000+0  32575-3 0  9994
2 39417  97.6570 280.4828 0055324 283.2173  76.2874 14.82986264484906
CINEMA-3 (KHUSAT-2)     
1 39426U 13066L   22315.82642710  .00001235  00000+0  19525-3 0  9998
2 39426  97.8111 249.4453 0103859 123.1956 237.9262 14.70468402481197
TRITON-1                
1 39427U 13066M   22315.78749507  .00001565  00000+0  24827-3 0  9993
2 39427  97.8221 245.2572 0111536 152.8958 207.8132 14.69437652480606
DELFI-N3XT              
1 39428U 13066N   22315.80936045  .00002533  00000+0  38891-3 0  9994
2 39428  97.8223 243.9310 0115862 165.6899 194.7637 14.69973379480353
GOMX-1                  
1 39430U 13066Q   22315.83612021  .00003296  00000+0  59054-3 0  9996
2 39430  97.7969 214.5432 0147126 300.4316  58.2408 14.60621078477805
BRITE-PL1 (LEM)         
1 39431U 13066R   22315.55025081  .00000620  00000+0  13989-3 0  9995
2 39431  97.6838 156.0945 0202123 132.5388 229.3072 14.47493702473643
ICUBE-1                 
1 39432U 13066S   22315.55845913  .00003359  00000+0  32696-3 0  9998
2 39432  97.4745 311.8066 0031987 129.9350 230.4688 14.92780430486648
HUMSAT-D                
1 39433U 13066T   22315.55037285  .00004766  00000+0  43183-3 0  9990
2 39433  97.4501 319.5537 0030525 104.1010 256.3607 14.95451918487190
VELOX-PII               
1 39438U 13066Y   22315.84277151  .00002977  00000+0  39068-3 0  9994
2 39438  97.7131 272.3071 0068220 337.9970  21.8316 14.79404414483920
FIRST-MOVE              
1 39439U 13066Z   22315.46342100  .00006290  00000+0  71185-3 0  9998
2 39439  97.6559 283.3352 0059218 276.8528  82.5953 14.85498589483862
CUBEBUG-2 (LO-74)       
1 39440U 13066AA  22315.57778380  .00003252  00000+0  43972-3 0  9993
2 39440  97.7456 267.1183 0078567  15.3816 344.9756 14.77556170482000
NEE-02 KRYSAOR          
1 39441U 13066AB  22315.84769671  .00002393  00000+0  33569-3 0  9993
2 39441  97.7565 264.4678 0080912  28.9542 331.6121 14.76131533482936
FUNCUBE-1 (AO-73)       
1 39444U 13066AE  22315.87414634  .00003777  00000+0  44614-3 0  9995
2 39444  97.6444 283.3409 0053876 268.5623  90.9420 14.84213586483977
HINCUBE                 
1 39445U 13066AF  22315.87807762  .00003621  00000+0  43022-3 0  9994
2 39445  97.6458 283.1486 0053967 271.0046  88.4986 14.84004295483508
UWE-3                   
1 39446U 13066AG  22315.88509263  .00003456  00000+0  44465-3 0  9999
2 39446  97.7064 273.7634 0067106 329.9526  29.7843 14.80169953482855
AIST-1 (RS-41)          
1 39492U 13078C   22315.86841033  .00001936  00000+0  20399-3 0  9996
2 39492  82.4163  95.5470 0019282 342.1866  17.8677 14.88734159481712
SPROUT                  
1 39770U 14029E   22315.81479716  .00014286  00000+0  13714-2 0  9996
2 39770  97.9536  73.9644 0008114 324.0653  36.0002 14.93162803459632
UNISAT-6                
1 40012U 14033C   22315.78806098  .00001679  00000+0  24809-3 0  9995
2 40012  97.6615 135.9451 0057939  42.7179 317.8513 14.75341535451707
BUGSAT-1 (TITA)         
1 40014U 14033E   22315.58896672  .00002811  00000+0  24549-3 0  9992
2 40014  98.1467 320.0985 0028704 270.7398  89.0517 14.97387669458153
DUCHIFAT-1              
1 40021U 14033M   22315.41844312  .00005396  00000+0  51078-3 0  9994
2 40021  98.0309 268.5028 0010126 277.4418  82.5650 14.94034597456638
NANOSATC-BR1            
1 40024U 14033Q   22315.81227736  .00005084  00000+0  49806-3 0  9996
2 40024  98.0021 261.4634 0009705 285.0838  74.9307 14.92696534456478
QB50P1                  
1 40025U 14033R   22315.78463164  .00004356  00000+0  44277-3 0  9998
2 40025  97.9735 254.4662 0010288 296.6735  63.3428 14.91296016456223
DTUSAT-2                
1 40030U 14033W   22315.49144593  .00003733  00000+0  38619-3 0  9995
2 40030  97.9471 248.9543 0009888 294.1414  65.8770 14.90681469455543
QB50P2                  
1 40032U 14033Y   22315.80184915  .00003010  00000+0  31265-3 0  9992
2 40032  97.9475 249.2821 0009899 294.3676  65.6508 14.90665381456088
POLYITAN-1              
1 40042U 14033AJ  22315.79036618  .00005352  00000+0  53969-3 0  9993
2 40042  97.9845 255.8807 0012195 287.2091  72.7791 14.91495872456116
TIGRISAT                
1 40043U 14033AK  22315.48943610  .00001444  00000+0  21391-3 0  9991
2 40043  97.6554 136.8663 0059822  40.9794 319.5889 14.75355212451302
AISAT                   
1 40054U 14034B   22315.55291573  .00003854  00000+0  50999-3 0  9999
2 40054  98.3655 133.0219 0011736 200.2780 159.7966 14.80524400451233
CANX-4                  
1 40055U 14034C   22315.42411191  .00001290  00000+0  19665-3 0  9993
2 40055  98.3724 117.3562 0012967 248.8736 111.1087 14.75692394450397
CANX-5                  
1 40056U 14034D   22315.43102892  .00001279  00000+0  19499-3 0  9992
2 40056  98.3725 117.3431 0012974 248.9406 111.0415 14.75689717441206
VELOX-I                 
1 40057U 14034E   22315.75607967  .00004244  00000+0  57062-3 0  9994
2 40057  98.3706 134.3201 0009917 214.8687 145.1871 14.79798965451256
METEOR-M 2              
1 40069U 14037A   22315.86782664  .00000037  00000+0  36256-4 0  9999
2 40069  98.4288 326.9260 0004586 252.4836 107.5834 14.20725906432790
DX1                     
1 40071U 14037C   22315.86426809  .00001709  00000+0  22196-3 0  9992
2 40071  98.3846 191.7665 0007835 195.5947 164.5018 14.82129639451178
UKUBE-1                 
1 40074U 14037F   22315.85079141  .00004283  00000+0  49617-3 0  9994
2 40074  98.3617 204.1099 0004689 154.3289 205.8151 14.86049731451954
FIREBIRD 3              
1 40377U 15003B   22315.70915783  .00031903  00000+0  80722-3 0  9990
2 40377  99.0777 213.8815 0085901 243.9984 115.2389 15.35927288430974
FIREBIRD 4              
1 40378U 15003C   22315.52942638  .00031755  00000+0  80137-3 0  9995
2 40378  99.0789 213.9092 0085877 244.0761 115.1609 15.36008339430942
GRIFEX                  
1 40379U 15003D   22315.66499277  .00020063  00000+0  64783-3 0  9996
2 40379  99.0875 198.1611 0106170 292.8421  66.1628 15.26797267430067
CP10 (EXOCUBE)          
1 40380U 15003E   22315.53900022  .00014411  00000+0  52038-3 0  9999
2 40380  99.0983 190.0235 0116835 320.2655  39.0060 15.22340212429513
DEORBITSAIL             
1 40719U 15032E   22315.89467152  .00003396  00000+0  46424-3 0  9990
2 40719  97.7588 189.2091 0014156 244.8687 115.1057 14.79135338395677
NUDT-PHONESAT           
1 40900U 15049B   22315.90822014  .00067513  00000+0  13804-2 0  9990
2 40900  97.3887 335.4335 0010148 110.1147 333.2029 15.45851451397305
XW-2A                   
1 40903U 15049E   22315.79201624  .00055853  00000+0  64560-3 0  9998
2 40903  97.1612  15.0557 0005612 287.7370 139.4624 15.61696961402189
XW-2C                   
1 40906U 15049H   22315.75416726  .00009795  00000+0  44628-3 0  9995
2 40906  97.4964 318.1722 0012476 196.6058 267.8529 15.20804721395296
XW-2D                   
1 40907U 15049J   22315.76998175  .00011361  00000+0  50356-3 0  9997
2 40907  97.4951 318.3156 0011765 191.0354 273.1560 15.21717929395350
LILACSAT-2              
1 40908U 15049K   22315.92676468  .00005611  00000+0  28863-3 0  9993
2 40908  97.5223 315.1829 0013559 220.1135 227.1932 15.16768640394834
XW-2E                   
1 40909U 15049L   22315.92751398  .00018386  00000+0  70147-3 0  9995
2 40909  97.4637 323.3894 0011652 164.6838 282.9779 15.26658114395889
XW-2F                   
1 40910U 15049M   22315.77577186  .00018181  00000+0  70510-3 0  9998
2 40910  97.4724 322.4088 0012691 167.4352 278.7293 15.26104803395626
XW-2B                   
1 40911U 15049N   22315.74293588  .00011234  00000+0  49996-3 0  9993
2 40911  97.4932 318.8371 0011818 192.1720 282.4150 15.21582579395232
KAITUO 1B               
1 40912U 15049P   22315.92115667  .00021140  00000+0  73472-3 0  9998
2 40912  97.4333 326.9088 0013764 134.0689 311.9227 15.29671527396261
TIANWANG 1A (TW-1A)     
1 40928U 15051D   22315.79138318  .00178348  00000+0  88518-3 0  9991
2 40928  97.0185 338.5957 0007348 169.2917 245.4706 15.81459582401317
LAPAN-A2                
1 40931U 15052B   22315.33254243  .00001319  00000+0  93902-4 0  9999
2 40931   5.9954 201.2650 0013045  85.9053 274.2587 14.76916730385094
LQSAT                   
1 40958U 15057A   22315.83741321  .00000782  00000+0  12744-3 0  9993
2 40958  97.7332 355.3272 0017353 201.4372 158.6099 14.73499561381687
ATHENOXAT 1             
1 41168U 15077C   22315.71901242  .00036217  00000+0  13310-2 0  9997
2 41168  14.9851  75.7667 0008268 154.1167 242.7959 15.25875117382796
GALASSIA                
1 41170U 15077E   22314.95605713  .00018732  00000+0  71894-3 0  9993
2 41170  14.9879  74.0894 0010046 169.3427 190.7109 15.23837630382578
VELOX-II                
1 41171U 15077F   22315.22985911  .00011606  00000+0  51349-3 0  9992
2 41171  14.9893 153.5740 0007524 359.2290   0.8019 15.18311019381935
CHUBUSAT-2              
1 41338U 16012B   22315.83502083  .00002913  00000+0  21025-3 0  9998
2 41338  31.0012 165.1165 0012872 176.6983 183.3739 15.02009986369656
CHUBUSAT-3              
1 41339U 16012C   22315.77329247  .00003542  00000+0  25691-3 0  9993
2 41339  31.0103 162.4211 0012343 182.9095 272.4417 15.02038986369641
HORYU-4                 
1 41340U 16012D   22315.53376009  .00004834  00000+0  33139-3 0  9998
2 41340  31.0027 139.1974 0012612 227.0681 132.8898 15.04389085369885
